
# C41 (GNSS)
1 44864U 19090A   25308.43407205 -.00000019  00000+0  00000+0 0  9997
2 44864  56.3607  70.2320 0016386 284.7772  43.7155  1.86231131 40049

# C42 (GNSS)
1 44865U 19090B   25308.33372752 -.00000018  00000+0  00000+0 0  9994
2 44865  56.3624  70.2694 0013580 298.7498  52.0829  1.86231116 40028

# C60 (GNSS)
1 45344U 20017A   25308.55173372 -.00000128  00000+0  00000+0 0  9991
2 45344   2.9275  43.0227 0003341 257.6422  22.0698  1.00271756 21003

# C61 (GNSS)
1 45807U 20040A   25307.70808616 -.00000340  00000+0  00000+0 0  9999
2 45807   1.8929  66.1728 0004456 307.5513  34.9939  1.00270957 19804

# C62 (GNSS)
1 56564U 23066A   25308.63169743 -.00000100  00000+0  00000+0 0  9990
2 56564   0.9026 299.0806 0004354 227.5115 264.9786  1.00272025  9143

# C50 (GNSS)
1 58654U 23207A   25308.31404907 -.00000020  00000+0  00000+0 0  9999
2 58654  55.5513  69.9021 0000899 244.0598 115.9115  1.86229629 12651

# E24 (GNSS)
1 40889U 15045A   25306.81494939 -.00000003  00000+0  00000+0 0  9999
2 40889  55.0189 227.8608 0005008  30.5694 329.4745  1.70472801 63151

# E30 (GNSS)
1 40890U 15045B   25306.44901514 -.00000003  00000+0  00000+0 0  9992
2 40890  55.0183 227.8660 0002979  19.5103 340.5150  1.70472833 63172

# E07 (GNSS)
1 41859U 16069A   25306.91090193  .00000076  00000+0  00000+0 0  9998
2 41859  55.3580 107.3529 0001957 342.9296  17.0789  1.70474081 55542

# E08 (GNSS)
1 41175U 15079B   25306.25111897  .00000079  00000+0  00000+0 0  9994
2 41175  55.6868 107.4892 0002177  24.3253 335.7042  1.70474061 61321

# E09 (GNSS)
1 41174U 15079A   25308.37729797  .00000066  00000+0  00000+0 0  9998
2 41174  55.6892 107.4337 0002504  10.4486 349.5601  1.70474184 60946

# E01 (GNSS)
1 41550U 16030B   25307.80545781 -.00000001  00000+0  00000+0 0  9990
2 41550  55.1667 227.8926 0002234 248.3471 111.6478  1.70473364 58829

# E02 (GNSS)
1 41549U 16030A   25307.54793045 -.00000002  00000+0  00000+0 0  9998
2 41549  55.1674 227.9015 0003554 353.0371   6.9753  1.70472836 58829

# E03 (GNSS)
1 41860U 16069B   25306.76461486  .00000076  00000+0  00000+0 0  9990
2 41860  55.3550 107.3524 0002707  42.4910 317.5460  1.70474320 55792

# E04 (GNSS)
1 41861U 16069C   25307.13223869  .00000074  00000+0  00000+0 0  9992
2 41861  55.3572 107.3497 0001539 293.9865  66.0110  1.70474616 55662

# E05 (GNSS)
1 41862U 16069D   25307.86477048  .00000069  00000+0  00000+0 0  9997
2 41862  55.3568 107.3223 0000689 316.9444  43.0580  1.70474371 55809

# E21 (GNSS)
1 43055U 17079A   25306.00826293 -.00000003  00000+0  00000+0 0  9999
2 43055  55.1458 227.7587 0001934 296.9779  63.0158  1.70473633 49113

# E25 (GNSS)
1 43056U 17079B   25307.47274646 -.00000002  00000+0  00000+0 0  9990
2 43056  55.1456 227.7184 0003371 297.8376  62.1457  1.70473739 49158

# E27 (GNSS)
1 43057U 17079C   25308.28002833  .00000001  00000+0  00000+0 0  9996
2 43057  55.1434 227.6942 0003182 317.1805  42.8165  1.70473674 49158

# E31 (GNSS)
1 43058U 17079D   25306.74032989 -.00000003  00000+0  00000+0 0  9994
2 43058  55.1441 227.7343 0003716 291.6301  68.3451  1.70473697 49159

# E36 (GNSS)
1 43566U 18060C   25308.25672993 -.00000065  00000+0  00000+0 0  9990
2 43566  57.2390 347.8631 0005312 276.6909  83.3176  1.70475819 45351

# E13 (GNSS)
1 43567U 18060D   25307.89104999 -.00000064  00000+0  00000+0 0  9995
2 43567  57.2385 347.8736 0005280 273.1310  86.8780  1.70475603 45321

# E15 (GNSS)
1 43564U 18060A   25307.22967692 -.00000062  00000+0  00000+0 0  9994
2 43564  57.2366 347.8862 0006113 272.6621  87.3376  1.70475896 45312

# E33 (GNSS)
1 43565U 18060B   25306.27578358 -.00000061  00000+0  00000+0 0  9995
2 43565  57.2404 347.9151 0005969 251.8758 108.1285  1.70475660 45349

# E34 (GNSS)
1 49809U 21116A   25307.25018087 -.00000062  00000+0  00000+0 0  9996
2 49809  57.2284 347.7820 0004669 235.3589 182.0609  1.70475758 24333

# E10 (GNSS)
1 49810U 21116B   25308.14470638 -.00000064  00000+0  00000+0 0  9993
2 49810  57.2288 347.7563 0003939 237.8600 121.1347  1.70475754 24365

# R01 (GNSS)
1 36111U 09070A   25306.66904252  .00000026  00000+0  00000+0 0  9994
2 36111  64.8784  78.7075 0001683 311.8003  46.5744  2.13103504123598

# R02 (GNSS)
1 39155U 13019A   25305.78873729  .00000041  00000+0  00000+0 0  9996
2 39155  65.2932  81.2436 0023556 227.1726 132.6259  2.13104293 97430

# R03 (GNSS)
1 37867U 11064A   25307.04375101  .00000027  00000+0  00000+0 0  9998
2 37867  65.1412  80.5140 0023077 231.2553 323.2531  2.13101338108943

# R04 (GNSS)
1 44850U 19088A   25306.84527873  .00000031  00000+0  00000+0 0  9999
2 44850  65.4391  81.2922 0012653 246.2415 113.6170  2.13101861 45894

# R05 (GNSS)
1 43508U 18053A   25308.30853791  .00000018  00000+0  00000+0 0  9998
2 43508  65.4525  81.4157 0008060 217.3440 142.5845  2.13102075 57484

# R06 (GNSS)
1 36112U 09070B   25308.37647250  .00000010  00000+0  00000+0 0  9990
2 36112  64.8642  78.4975 0005697 146.3901 211.3779  2.13100866123638

# R07 (GNSS)
1 37868U 11064B   25308.41329785  .00000015  00000+0  00000+0 0  9995
2 37868  65.1485  80.5449 0020189 231.5882 114.3220  2.13102754108964

# R08 (GNSS)
1 37869U 11064C   25308.44585492  .00000015  00000+0  00000+0 0  9998
2 37869  65.1556  80.5633 0024984 246.9735  80.0439  2.13101467108975

# R09 (GNSS)
1 40315U 14075A   25308.05627293  .00000056  00000+0  00000+0 0  9991
2 40315  63.6136 198.1647 0020453 206.5070 153.4677  2.13101268 85055

# R10 (GNSS)
1 32395U 07065C   25307.88516878  .00000053  00000+0  00000+0 0  9994
2 32395  64.3229 199.5843 0017458   5.2953 182.4545  2.13099921138926

# R11 (GNSS)
1 46805U 20075A   25308.16745671  .00000054  00000+0  00000+0 0  9999
2 46805  64.5956 199.9842 0006900 233.2380 126.7759  2.13099768 39114

# R12 (GNSS)
1 44299U 19030A   25308.39825391  .00000055  00000+0  00000+0 0  9997
2 44299  64.3649 200.1845 0010093 281.8901 206.4613  2.13101887 50136

# R13 (GNSS)
1 32393U 07065A   25306.63556488  .00000042  00000+0  00000+0 0  9993
2 32393  64.3147 199.5566 0003299  66.2406 109.6116  2.13101184138945

# R14 (GNSS)
1 42939U 17055A   25307.87867850  .00000053  00000+0  00000+0 0  9997
2 42939  64.0756 199.5523 0007375 231.4488 128.5616  2.13101886 63179

# R15 (GNSS)
1 43687U 18086A   25307.93686596  .00000052  00000+0  00000+0 0  9995
2 43687  64.2916 200.1992 0008351 256.1500 103.8329  2.13101883 54481

# R16 (GNSS)
1 54377U 22161A   25307.99646519  .00000053  00000+0  00000+0 0  9990
2 54377  64.7375 200.1854 0009291 211.9608 148.0589  2.13101958 22838

# R17 (GNSS)
1 41330U 16008A   25308.50948416 -.00000017  00000+0  00000+0 0  9998
2 41330  65.1548 320.7141 0013245 217.8457 142.1043  2.13102638 75833

# R18 (GNSS)
1 39620U 14012A   25308.09362271 -.00000015  00000+0  00000+0 0  9991
2 39620  65.4284 321.5821 0013663 307.8198  52.1034  2.13103115 90447

# R19 (GNSS)
1 54031U 22130A   25308.15213721 -.00000018  00000+0  00000+0 0  9999
2 54031  64.4030 322.4998 0012668 192.3669 167.6489  2.13101383 23893

# R20 (GNSS)
1 32276U 07052B   25307.50771308 -.00000012  00000+0  00000+0 0  9994
2 32276  65.7191 323.6477 0010675 307.5157 231.2134  2.13103072140279

# R21 (GNSS)
1 40001U 14032A   25308.26633600 -.00000016  00000+0  00000+0 0  9995
2 40001  65.3643 321.3415 0009100 215.9411 144.0432  2.13105865 88663

# R22 (GNSS)
1 52984U 22075A   25308.33305446 -.00000019  00000+0  00000+0 0  9999
2 52984  64.4300 322.4027 0013770 273.9006  85.9881  2.13101904 25920

# R23 (GNSS)
1 36402U 10007C   25304.62410883 -.00000002  00000+0  00000+0 0  9990
2 36402  65.5519 322.1966 0002980 251.2622 106.6618  2.13106174121856

# R24 (GNSS)
1 45358U 20018A   25307.97979578 -.00000016  00000+0  00000+0 0  9990
2 45358  64.4912 320.3300 0012362 244.7233 115.1930  2.13102402 43869

# R25 (GNSS)
1 32275U 07052A   25308.14101435 -.00000015  00000+0  00000+0 0  9995
2 32275  65.7032 323.5029 0005949 244.1158 115.8725  2.13103996140266
